$$SOE
2459580.500000000, A.D. 2022-Jan-01 00:00:00.0000, -4.316378333287130E+08, -2.350221382114428E+08, 1.400688036881302E+07,
2459587.500000000, A.D. 2022-Jan-08 00:00:00.0000, -4.264355994188673E+08, -2.435460095405975E+08, 1.571476750769651E+07,
2459594.500000000, A.D. 2022-Jan-15 00:00:00.0000, -4.210588857585024E+08, -2.519701949273269E+08, 1.741622354410991E+07,
2459601.500000000, A.D. 2022-Jan-22 00:00:00.0000, -4.155095389522583E+08, -2.602910384669527E+08, 1.911053724540284E+07,
2459608.500000000, A.D. 2022-Jan-29 00:00:00.0000, -4.097894921953689E+08, -2.685049148178434E+08, 2.079699792940900E+07,
2459615.500000000, A.D. 2022-Feb-05 00:00:00.0000, -4.039007670206499E+08, -2.766082321939072E+08, 2.247489602180733E+07,
2459622.500000000, A.D. 2022-Feb-12 00:00:00.0000, -3.978454727976865E+08, -2.845974364274461E+08, 2.414352333275957E+07,
2459629.500000000, A.D. 2022-Feb-19 00:00:00.0000, -3.916258053090426E+08, -2.924690137301693E+08, 2.580217336758368E+07,
2459636.500000000, A.D. 2022-Feb-26 00:00:00.0000, -3.852440457139888E+08, -3.002194928719183E+08, 2.745014173210941E+07,
2459643.500000000, A.D. 2022-Mar-05 00:00:00.0000, -3.787025597397664E+08, -3.078454473909793E+08, 2.908672656698053E+07,
2459650.500000000, A.D. 2022-Mar-12 00:00:00.0000, -3.720037968784804E+08, -3.153434978987165E+08, 3.071122898445371E+07,
2459657.500000000, A.D. 2022-Mar-19 00:00:00.0000, -3.651502895186635E+08, -3.227103144468910E+08, 3.232295350274368E+07,
2459664.500000000, A.D. 2022-Mar-26 00:00:00.0000, -3.581446519887154E+08, -3.299426189594801E+08, 3.392120847458740E+07,
2459671.500000000, A.D. 2022-Apr-02 00:00:00.0000, -3.509895794434738E+08, -3.370371877809330E+08, 3.550530649834783E+07,
2459678.500000000, A.D. 2022-Apr-09 00:00:00.0000, -3.436878463210579E+08, -3.439908543329793E+08, 3.707456478619447E+07,
2459685.500000000, A.D. 2022-Apr-16 00:00:00.0000, -3.362423040129409E+08, -3.508005112235323E+08, 3.862830550926355E+07,
2459692.500000000, A.D. 2022-Apr-23 00:00:00.0000, -3.286558790170053E+08, -3.574631107208905E+08, 4.016585632412969E+07,
2459699.500000000, A.D. 2022-Apr-30 00:00:00.0000, -3.209315734448808E+08, -3.639756658357127E+08, 4.168655106800884E+07,
2459706.500000000, A.D. 2022-May-07 00:00:00.0000, -3.130724648226568E+08, -3.703352539818692E+08, 4.318973017997888E+07,
2459713.500000000, A.D. 2022-May-14 00:00:00.0000, -3.050817037977854E+08, -3.765390201748551E+08, 4.467474096867752E+07,
2459720.500000000, A.D. 2022-May-21 00:00:00.0000, -2.969625117845191E+08, -3.825841790048030E+08, 4.614093797425587E+07,
2459727.500000000, A.D. 2022-May-28 00:00:00.0000, -2.887181790270420E+08, -3.884680163386784E+08, 4.758768338942070E+07,
2459734.500000000, A.D. 2022-Jun-04 00:00:00.0000, -2.803520628034380E+08, -3.941878910611376E+08, 4.901434748780949E+07,
2459741.500000000, A.D. 2022-Jun-11 00:00:00.0000, -2.718675856266260E+08, -3.997412368493956E+08, 5.042030904597244E+07,
2459748.500000000, A.D. 2022-Jun-18 00:00:00.0000, -2.632682334052135E+08, -4.051255639667094E+08, 5.180495575607195E+07,
2459755.500000000, A.D. 2022-Jun-25 00:00:00.0000, -2.545575535370701E+08, -4.103384611053665E+08, 5.316768462359291E+07,
2459762.500000000, A.D. 2022-Jul-02 00:00:00.0000, -2.457391528040437E+08, -4.153775973423284E+08, 5.450790233212020E+07,
2459769.500000000, A.D. 2022-Jul-09 00:00:00.0000, -2.368166946800667E+08, -4.202407240277834E+08, 5.582502555355270E+07,
2459776.500000000, A.D. 2022-Jul-16 00:00:00.0000, -2.277938961103251E+08, -4.249256755208288E+08, 5.711848129695904E+07,
2459783.500000000, A.D. 2022-Jul-23 00:00:00.0000, -2.186745259620419E+08, -4.294303686913176E+08, 5.838770750359063E+07,
2459790.500000000, A.D. 2022-Jul-30 00:00:00.0000, -2.094624050645844E+08, -4.337528045391440E+08, 5.963215360573676E+07,
2459797.500000000, A.D. 2022-Aug-06 00:00:00.0000, -2.001614042426218E+08, -4.378910712814906E+08, 6.085128077207246E+07,
2459804.500000000, A.D. 2022-Aug-13 00:00:00.0000, -1.907754411687747E+08, -4.418433461520980E+08, 6.204456214007840E+07,
2459811.500000000, A.D. 2022-Aug-20 00:00:00.0000, -1.813084776082199E+08, -4.456078964136794E+08, 6.321148313816534E+07,
2459818.500000000, A.D. 2022-Aug-27 00:00:00.0000, -1.717645169899182E+08, -4.491830803076248E+08, 6.435154183153327E+07,
2459825.500000000, A.D. 2022-Sep-03 00:00:00.0000, -1.621476020591669E+08, -4.525673480494120E+08, 6.546424925954099E+07,
2459832.500000000, A.D. 2022-Sep-10 00:00:00.0000, -1.524618125239927E+08, -4.557592428442428E+08, 6.654912975783801E+07,
2459839.500000000, A.D. 2022-Sep-17 00:00:00.0000, -1.427112626688416E+08, -4.587574019236219E+08, 6.760572126206480E+07,
2459846.500000000, A.D. 2022-Sep-24 00:00:00.0000, -1.329000988783559E+08, -4.615605576529985E+08, 6.863357558312759E+07,
2459853.500000000, A.D. 2022-Oct-01 00:00:00.0000, -1.230324968346887E+08, -4.641675387320359E+08, 6.963225862987827E+07,
2459860.500000000, A.D. 2022-Oct-08 00:00:00.0000, -1.131126579845676E+08, -4.665772709647036E+08, 7.060135058409554E+07,
2459867.500000000, A.D. 2022-Oct-15 00:00:00.0000, -1.031448062114601E+08, -4.687887763990934E+08, 7.154044621070459E+07,
2459874.500000000, A.D. 2022-Oct-22 00:00:00.0000, -9.313318689757518E+07, -4.708011725196367E+08, 7.244915536499740E+07,
2459881.500000000, A.D. 2022-Oct-29 00:00:00.0000, -8.308206588065125E+07, -4.726136740848402E+08, 7.332710325516270E+07,
2459888.500000000, A.D. 2022-Nov-05 00:00:00.0000, -7.299572620960152E+07, -4.742255948702851E+08, 7.417393049138814E+07,
2459895.500000000, A.D. 2022-Nov-12 00:00:00.0000, -6.287846466802686E+07, -4.756363480502093E+08, 7.498929320524049E+07,
2459902.500000000, A.D. 2022-Nov-19 00:00:00.0000, -5.273458878926146E+07, -4.768454461714329E+08, 7.577286322703156E+07,
2459909.500000000, A.D. 2022-Nov-26 00:00:00.0000, -4.256841410479834E+07, -4.778525011159311E+08, 7.652432826407944E+07,
2459916.500000000, A.D. 2022-Dec-03 00:00:00.0000, -3.238426146352379E+07, -4.786572240622221E+08, 7.724339206287938E+07,
2459923.500000000, A.D. 2022-Dec-10 00:00:00.0000, -2.218645437876322E+07, -4.792594254258804E+08, 7.792977455169557E+07,
2459930.500000000, A.D. 2022-Dec-17 00:00:00.0000, -1.197931638030582E+07, -4.796590148044323E+08, 7.858321195879406E+07,
2459937.500000000, A.D. 2022-Dec-24 00:00:00.0000, -1.767168264080394E+06, -4.798560009942137E+08, 7.920345689102992E+07,
2459944.500000000, A.D. 2022-Dec-31 00:00:00.0000, 8.445675115293741E+06, -4.798504919743032E+08, 7.979027834935087E+07,
2459951.500000000, A.D. 2023-Jan-07 00:00:00.0000, 1.865490862807830E+07, -4.796426938976896E+08, 8.034346174927391E+07,
2459958.500000000, A.D. 2023-Jan-14 00:00:00.0000, 2.885623925796726E+07, -4.792329085944558E+08, 8.086280916771770E+07,
2459965.500000000, A.D. 2023-Jan-21 00:00:00.0000, 3.904538644727881E+07, -4.786215327601059E+08, 8.134813961595689E+07,
2459972.500000000, A.D. 2023-Jan-28 00:00:00.0000, 4.921808406409182E+07, -4.778090590255432E+08, 8.179928898624492E+07,
2459979.500000000, A.D. 2023-Feb-04 00:00:00.0000, 5.937008378005993E+07, -4.767960758829431E+08, 8.221610993898132E+07,
2459986.500000000, A.D. 2023-Feb-11 00:00:00.0000, 6.949715806073132E+07, -4.755832666628860E+08, 8.259847187958197E+07,
2459993.500000000, A.D. 2023-Feb-18 00:00:00.0000, 7.959510270233746E+07, -4.741714083873609E+08, 8.294626096379375E+07,
2460000.500000000, A.D. 2023-Feb-25 00:00:00.0000, 8.965973917527002E+07, -4.725613706618337E+08, 8.325938009432803E+07,
2460007.500000000, A.D. 2023-Mar-04 00:00:00.0000, 9.968691687404586E+07, -4.707541145889558E+08, 8.353774890115756E+07,
2460014.500000000, A.D. 2023-Mar-11 00:00:00.0000, 1.096725153002906E+08, -4.687506917048207E+08, 8.378130370308252E+07,
2460021.500000000, A.D. 2023-Mar-18 00:00:00.0000, 1.196124462240966E+08, -4.665522429889187E+08, 8.398999744252029E+07,
2460028.500000000, A.D. 2023-Mar-25 00:00:00.0000, 1.295026560255509E+08, -4.641599979971814E+08, 8.416379957156919E+07,
2460035.500000000, A.D. 2023-Apr-01 00:00:00.0000, 1.393391286393196E+08, -4.615752737273671E+08, 8.430269588329734E+07,
2460042.500000000, A.D. 2023-Apr-08 00:00:00.0000, 1.491178884849162E+08, -4.587994719945331E+08, 8.440668844551405E+07,
2460049.500000000, A.D. 2023-Apr-15 00:00:00.0000, 1.588350010433963E+08, -4.558340764247868E+08, 8.447579576133260E+07,
2460056.500000000, A.D. 2023-Apr-22 00:00:00.0000, 1.684865728879873E+08, -4.526806521206157E+08, 8.451005274118344E+07,
2460063.500000000, A.D. 2023-Apr-29 00:00:00.0000, 1.780687539028830E+08, -4.493408457471295E+08, 8.450951041981757E+07,
2460070.500000000, A.D. 2023-May-06 00:00:00.0000, 1.875777399290549E+08, -4.458163842611361E+08, 8.447423572588055E+07,
2460077.500000000, A.D. 2023-May-13 00:00:00.0000, 1.970097748591000E+08, -4.421090731794648E+08, 8.440431132104962E+07,
2460084.500000000, A.D. 2023-May-20 00:00:00.0000, 2.063611524141276E+08, -4.382207948802673E+08, 8.429983544737464E+07,
2460091.500000000, A.D. 2023-May-27 00:00:00.0000, 2.156282177951439E+08, -4.341535069693375E+08, 8.416092176284434E+07,
2460098.500000000, A.D. 2023-Jun-03 00:00:00.0000, 2.248073692655657E+08, -4.299092406880037E+08, 8.398769916210462E+07,
2460105.500000000, A.D. 2023-Jun-10 00:00:00.0000, 2.338950596878605E+08, -4.254900993787389E+08, 8.378031157902749E+07,
2460112.500000000, A.D. 2023-Jun-17 00:00:00.0000, 2.428877981029828E+08, -4.208982570709149E+08, 8.353891775809668E+07,
2460119.500000000, A.D. 2023-Jun-24 00:00:00.0000, 2.517821516727072E+08, -4.161359571337768E+08, 8.326369097010781E+07,
2460126.500000000, A.D. 2023-Jul-01 00:00:00.0000, 2.605747482382121E+08, -4.112055101719222E+08, 8.295481871726166E+07,
2460133.500000000, A.D. 2023-Jul-08 00:00:00.0000, 2.692622778205804E+08, -4.061092903448895E+08, 8.261250264900695E+07,
2460140.500000000, A.D. 2023-Jul-15 00:00:00.0000, 2.778414917853482E+08, -4.008497329433771E+08, 8.223695857465744E+07,
2460147.500000000, A.D. 2023-Jul-22 00:00:00.0000, 2.863092031916672E+08, -3.954293342582209E+08, 8.182841616514114E+07,
$$EOE